POLYGON ((1487735.321419 -316791.905258, 1487733.869059 -316792.458372, 1487735.795322 -316798.041034, 1487737.325835 -316797.46453, 1487741.744541 -316810.237093, 1487740.494099 -316810.611331, 1487741.385621 -316813.305651, 1487742.837987 -316812.752534, 1487743.905267 -316815.749589, 1487742.765511 -316816.209146, 1487743.689568 -316819.012175, 1487744.940012 -316818.637936, 1487748.193841 -316828.087327, 1487747.288541 -316828.476716, 1487748.68117 -316832.560857, 1487749.931618 -316832.186617, 1487754.239651 -316844.873879, 1487753.490654 -316845.216488, 1487754.460332 -316847.887421, 1487755.476324 -316847.58335, 1487759.895051 -316860.355937, 1487758.879057 -316860.66001, 1487760.239155 -316864.635448, 1487761.567764 -316864.237814, 1487764.886678 -316873.90464, 1487763.870681 -316874.208713, 1487764.794743 -316877.011748, 1487766.012667 -316876.528795, 1487767.0018 -316879.549247, 1487765.75134 -316879.923492, 1487767.046372 -316883.681516, 1487767.209046 -316884.225059, 1487767.293567 -316884.791993, 1487767.299935 -316885.382317, 1487767.273767 -316885.863933, 1487767.20198 -316886.477647, 1487767.097659 -316886.982653, 1487766.915183 -316887.511049, 1487766.654554 -316888.062835, 1487766.393924 -316888.614622, 1487766.10076 -316889.0577, 1487765.807595 -316889.500777, 1487765.436277 -316889.967245, 1487764.95427 -316890.348395, 1487764.517881 -316890.597445, 1487764.035874 -316890.978594, 1487763.521332 -316891.251035, 1487762.974255 -316891.414767, 1487762.427177 -316891.578498, 1487761.958254 -316891.71884, 1487761.378642 -316891.773862, 1487760.79903 -316891.828885, 1487752.860928 -316890.05902, 1487752.710986 -316890.696124, 1487687.012149 -316875.179893, 1487688.374762 -316869.205175, 1487689.208278 -316869.429509, 1487689.645032 -316867.759013, 1487688.733363 -316867.558067, 1487689.874229 -316862.834164, 1487690.974738 -316863.097039, 1487691.757001 -316860.020243, 1487690.76718 -316859.842687, 1487691.458203 -316857.030088, 1487692.448024 -316857.207643, 1487692.761001 -316855.692634, 1487691.77118 -316855.515079, 1487693.388043 -316848.398261, 1487694.788076 -316848.808385, 1487695.133585 -316847.402086, 1487692.821885 -316846.791018, 1487695.520877 -316835.323208, 1487704.052637 -316832.532973, 1487704.488663 -316833.705379, 1487708.676389 -316832.333646, 1487708.240362 -316831.16124, 1487721.318066 -316826.773582, 1487721.610874 -316827.75196, 1487722.985092 -316827.222238, 1487723.473107 -316828.852867, 1487725.159936 -316828.229586, 1487724.691371 -316826.948473, 1487726.847117 -316826.184854, 1487727.368019 -316826.50274, 1487728.397441 -316824.536416, 1487727.492843 -316822.0829, 1487726.945773 -316822.246628, 1487725.86542 -316819.490376, 1487724.64751 -316819.973319, 1487721.172347 -316810.353282, 1487723.015475 -316809.683223, 1487722.286634 -316807.532444, 1487720.111797 -316806.525097, 1487719.818637 -316806.96817, 1487717.662899 -316807.731786, 1487717.083648 -316806.365355, 1487715.676903 -316806.786366, 1487716.38629 -316808.587631, 1487715.090231 -316809.093961, 1487715.558794 -316810.375073, 1487708.355668 -316812.767708, 1487707.932725 -316811.354497, 1487703.699398 -316812.858328, 1487704.200493 -316814.24815, 1487694.418321 -316817.412612, 1487693.949763 -316816.131497, 1487693.669686 -316816.333762, 1487691.086075 -316809.408037, 1487688.461421 -316810.311975, 1487685.045025 -316800.319021, 1487698.559028 -316795.682382, 1487699.092656 -316797.180911, 1487703.202199 -316795.832572, 1487702.746722 -316794.310653, 1487715.713641 -316789.837692, 1487716.312343 -316791.553637, 1487720.54565 -316790.049795, 1487720.012016 -316788.551268, 1487732.698843 -316784.28053, 1487735.321419 -316791.905258), (1487708.861444 -316862.884551, 1487714.198604 -316864.129959, 1487714.544783 -316862.640544, 1487739.252959 -316868.405216, 1487738.912654 -316869.857343, 1487742.089826 -316870.600249, 1487744.021562 -316869.856292, 1487741.371447 -316863.021519, 1487739.926882 -316863.572297, 1487738.581652 -316860.101726, 1487739.029743 -316859.920242, 1487736.464894 -316853.285001, 1487737.37996 -316852.928227, 1487736.863864 -316851.602115, 1487735.925353 -316851.965906, 1487733.331862 -316845.291861, 1487734.41561 -316844.872759, 1487733.239596 -316841.825331, 1487731.036737 -316840.838212, 1487728.845162 -316841.624398, 1487728.474871 -316840.586297, 1487726.028644 -316841.460539, 1487726.961213 -316844.035977, 1487714.063144 -316848.654145, 1487713.536021 -316847.177354, 1487709.729253 -316848.541677, 1487711.208455 -316852.659135, 1487710.548067 -316855.40335, 1487708.138015 -316854.833565, 1487707.315941 -316858.289462, 1487708.344168 -316858.538433, 1487707.781559 -316860.898048, 1487708.861444 -316862.884551))
